[ {
  "OBJECT_ID": "1999-043D",
  "OBJECT_NAME": "GLOBALSTAR M053",
  "NORAD_CAT_ID": "25886",
  "OBJECT_TYPE": "PAYLOAD",
  "PERIOD": "127.701",
  "INCLINATION": "51.9977",
  "APOGEE": "2025.294",
  "PERIGEE": "2018.918",
  "ECCENTRICITY": "0.0003795",
  "MEAN_MOTION": "11.27625995",
  "TLE_LINE1": "1 25886U 99043D   16238.93599887 -.00000080 +00000-0 -34151-3 0  9999",
  "TLE_LINE2": "2 25886 051.9977 142.2207 0003795 015.9008 066.0642 11.27625995756575",
  "LAUNCH_DATE": "1999-08-17",
  "LAUNCH_SITE": "AIR FORCE EASTERN TEST RANGE",
  "OWNER": "GLOBALSTAR",
  "ORBIT_TYPE": "Low Earth Orbit",
  "OPERATIONAL_STATUS": "Nonoperational"
}, {
  "OBJECT_ID": "1999-045A",
  "OBJECT_NAME": "COSMOS 2366",
  "NORAD_CAT_ID": "25892",
  "OBJECT_TYPE": "PAYLOAD",
  "PERIOD": "104.770",
  "INCLINATION": "82.9261",
  "APOGEE": "1006.009",
  "PERIGEE": "961.376",
  "ECCENTRICITY": "0.0030314",
  "MEAN_MOTION": "13.74435246",
  "TLE_LINE1": "1 25892U 99045A   16238.68464838  .00000016  00000-0  94517-6 0  9999",
  "TLE_LINE2": "2 25892  82.9261 260.8577 0030314 260.4159 236.6739 13.74435246852807",
  "LAUNCH_DATE": "1999-08-26",
  "LAUNCH_SITE": "PLESETSK MISSILE AND SPACE COMPLEX",
  "OWNER": "COMMONWEALTH OF INDEPENDENT STATES",
  "ORBIT_TYPE": "Low Earth Orbit",
  "OPERATIONAL_STATUS": "Nonoperational"
}, {
  "OBJECT_ID": "1999-049A",
  "OBJECT_NAME": "GLOBALSTAR M058",
  "NORAD_CAT_ID": "25907",
  "OBJECT_TYPE": "PAYLOAD",
  "PERIOD": "120.695",
  "INCLINATION": "51.994",
  "APOGEE": "1713.200",
  "PERIGEE": "1710.710",
  "ECCENTRICITY": "0.0001539",
  "MEAN_MOTION": "11.9308862",
  "TLE_LINE1": "1 25907U 99049A   16238.89139640 -.00000075 +00000-0 +12161-3 0  9991",
  "TLE_LINE2": "2 25907 051.9940 059.2503 0001539 134.4999 013.3262 11.93088620157495",
  "LAUNCH_DATE": "1999-09-22",
  "LAUNCH_SITE": "TYURATAM MISSILE AND SPACE COMPLEX",
  "OWNER": "GLOBALSTAR",
  "ORBIT_TYPE": "Low Earth Orbit",
  "OPERATIONAL_STATUS": "Nonoperational"
}, {
  "OBJECT_ID": "1999-049B",
  "OBJECT_NAME": "GLOBALSTAR M050",
  "NORAD_CAT_ID": "25908",
  "OBJECT_TYPE": "PAYLOAD",
  "PERIOD": "119.267",
  "INCLINATION": "52",
  "APOGEE": "1655.431",
  "PERIGEE": "1640.636",
  "ECCENTRICITY": "0.0009217",
  "MEAN_MOTION": "12.07369768",
  "TLE_LINE1": "1 25908U 99049B   16239.55186668 -.00000120  00000-0 -36186-3 0  9993",
  "TLE_LINE2": "2 25908  52.0000 305.5605 0009217 101.3892  37.3899 12.07369768764364",
  "LAUNCH_DATE": "1999-09-22",
  "LAUNCH_SITE": "TYURATAM MISSILE AND SPACE COMPLEX",
  "OWNER": "GLOBALSTAR",
  "ORBIT_TYPE": "Low Earth Orbit",
  "OPERATIONAL_STATUS": "Nonoperational"
}, {
  "OBJECT_ID": "1999-049C",
  "OBJECT_NAME": "GLOBALSTAR M033",
  "NORAD_CAT_ID": "25909",
  "OBJECT_TYPE": "PAYLOAD",
  "PERIOD": "118.008",
  "INCLINATION": "51.9927",
  "APOGEE": "1601.243",
  "PERIGEE": "1581.686",
  "ECCENTRICITY": "0.001227",
  "MEAN_MOTION": "12.20247578",
  "TLE_LINE1": "1 25909U 99049C   16238.91716450 -.00000113 +00000-0 -20469-3 0  9990",
  "TLE_LINE2": "2 25909 051.9927 041.4994 0012270 167.9233 192.1910 12.20247578142978",
  "LAUNCH_DATE": "1999-09-22",
  "LAUNCH_SITE": "TYURATAM MISSILE AND SPACE COMPLEX",
  "OWNER": "GLOBALSTAR",
  "ORBIT_TYPE": "Low Earth Orbit",
  "OPERATIONAL_STATUS": "Nonoperational"
}, {
  "OBJECT_ID": "1999-049D",
  "OBJECT_NAME": "GLOBALSTAR M055",
  "NORAD_CAT_ID": "25910",
  "OBJECT_TYPE": "PAYLOAD",
  "PERIOD": "117.137",
  "INCLINATION": "52.0001",
  "APOGEE": "1557.799",
  "PERIGEE": "1546.560",
  "ECCENTRICITY": "0.0007086",
  "MEAN_MOTION": "12.29326199",
  "TLE_LINE1": "1 25910U 99049D   16239.21307051 -.00000071  00000-0  19492-3 0  9995",
  "TLE_LINE2": "2 25910  52.0001 207.6854 0007086 288.0820 176.7171 12.29326199772839",
  "LAUNCH_DATE": "1999-09-22",
  "LAUNCH_SITE": "TYURATAM MISSILE AND SPACE COMPLEX",
  "OWNER": "GLOBALSTAR",
  "ORBIT_TYPE": "Low Earth Orbit",
  "OPERATIONAL_STATUS": "Nonoperational"
}, {
  "OBJECT_ID": "1999-051A",
  "OBJECT_NAME": "IKONOS 2",
  "NORAD_CAT_ID": "25919",
  "OBJECT_TYPE": "PAYLOAD",
  "PERIOD": "96.846",
  "INCLINATION": "98.0525",
  "APOGEE": "613.765",
  "PERIGEE": "601.608",
  "ECCENTRICITY": "0.0008701",
  "MEAN_MOTION": "14.86882025",
  "TLE_LINE1": "1 25919U 99051A   16239.31528516 -.00000107  00000-0 -56494-5 0  9995",
  "TLE_LINE2": "2 25919  98.0525 327.5984 0008701  45.7587 314.4345 14.86882025905728",
  "LAUNCH_DATE": "1999-09-24",
  "LAUNCH_SITE": "AIR FORCE WESTERN TEST RANGE",
  "OWNER": "UNITED STATES OF AMERICA",
  "ORBIT_TYPE": "Low Earth Orbit",
  "OPERATIONAL_STATUS": "Nonoperational"
}, {
  "OBJECT_ID": "1999-058A",
  "OBJECT_NAME": "GLOBALSTAR M057",
  "NORAD_CAT_ID": "25943",
  "OBJECT_TYPE": "PAYLOAD",
  "PERIOD": "117.578",
  "INCLINATION": "51.9982",
  "APOGEE": "1573.906",
  "PERIGEE": "1570.217",
  "ECCENTRICITY": "0.000232",
  "MEAN_MOTION": "12.24717466",
  "TLE_LINE1": "1 25943U 99058A   16238.84340139 -.00000084 +00000-0 +82347-4 0  9997",
  "TLE_LINE2": "2 25943 051.9982 117.8375 0002320 223.4042 136.6625 12.24717466772707",
  "LAUNCH_DATE": "1999-10-18",
  "LAUNCH_SITE": "TYURATAM MISSILE AND SPACE COMPLEX",
  "OWNER": "GLOBALSTAR",
  "ORBIT_TYPE": "Low Earth Orbit",
  "OPERATIONAL_STATUS": "Nonoperational"
}, {
  "OBJECT_ID": "1999-058C",
  "OBJECT_NAME": "GLOBALSTAR M056",
  "NORAD_CAT_ID": "25945",
  "OBJECT_TYPE": "PAYLOAD",
  "PERIOD": "119.531",
  "INCLINATION": "51.9991",
  "APOGEE": "1660.467",
  "PERIGEE": "1659.238",
  "ECCENTRICITY": "7.64e-05",
  "MEAN_MOTION": "12.0470782",
  "TLE_LINE1": "1 25945U 99058C   16239.52880782 -.00000105  00000-0 -21012-3 0  9994",
  "TLE_LINE2": "2 25945  51.9991 353.1052 0000764 263.5751 176.7805 12.04707820774975",
  "LAUNCH_DATE": "1999-10-18",
  "LAUNCH_SITE": "TYURATAM MISSILE AND SPACE COMPLEX",
  "OWNER": "GLOBALSTAR",
  "ORBIT_TYPE": "Low Earth Orbit",
  "OPERATIONAL_STATUS": "Nonoperational"
}, {
  "OBJECT_ID": "1999-058D",
  "OBJECT_NAME": "GLOBALSTAR M031",
  "NORAD_CAT_ID": "25946",
  "OBJECT_TYPE": "PAYLOAD",
  "PERIOD": "118.426",
  "INCLINATION": "51.9959",
  "APOGEE": "1611.854",
  "PERIGEE": "1608.699",
  "ECCENTRICITY": "0.0001975",
  "MEAN_MOTION": "12.15939855",
  "TLE_LINE1": "1 25946U 99058D   16238.93310036 -.00000158 +00000-0 -68216-3 0  9994",
  "TLE_LINE2": "2 25946 051.9959 079.3748 0001975 111.2126 028.5895 12.15939855773327",
  "LAUNCH_DATE": "1999-10-18",
  "LAUNCH_SITE": "TYURATAM MISSILE AND SPACE COMPLEX",
  "OWNER": "GLOBALSTAR",
  "ORBIT_TYPE": "Low Earth Orbit",
  "OPERATIONAL_STATUS": "Nonoperational"
}, {
  "OBJECT_ID": "1999-062A",
  "OBJECT_NAME": "GLOBALSTAR M039",
  "NORAD_CAT_ID": "25961",
  "OBJECT_TYPE": "PAYLOAD",
  "PERIOD": "114.088",
  "INCLINATION": "51.9868",
  "APOGEE": "1416.754",
  "PERIGEE": "1411.173",
  "ECCENTRICITY": "0.0003581",
  "MEAN_MOTION": "12.62179404",
  "TLE_LINE1": "1 25961U 99062A   16239.15127813 -.00000092  00000-0  66736-4 0  9992",
  "TLE_LINE2": "2 25961  51.9868 345.5478 0003581  72.3644 287.7614 12.62179404773986",
  "LAUNCH_DATE": "1999-11-22",
  "LAUNCH_SITE": "TYURATAM MISSILE AND SPACE COMPLEX",
  "OWNER": "GLOBALSTAR",
  "ORBIT_TYPE": "Low Earth Orbit",
  "OPERATIONAL_STATUS": "Nonoperational"
}, {
  "OBJECT_ID": "1999-062B",
  "OBJECT_NAME": "GLOBALSTAR M034",
  "NORAD_CAT_ID": "25962",
  "OBJECT_TYPE": "PAYLOAD",
  "PERIOD": "122.098",
  "INCLINATION": "51.9869",
  "APOGEE": "1786.855",
  "PERIGEE": "1762.223",
  "ECCENTRICITY": "0.0015107",
  "MEAN_MOTION": "11.79376893",
  "TLE_LINE1": "1 25962U 99062B   16239.55001472 -.00000091  00000-0 -15214-3 0  9993",
  "TLE_LINE2": "2 25962  51.9869  92.1015 0015107  82.3145 295.1396 11.79376893758840",
  "LAUNCH_DATE": "1999-11-22",
  "LAUNCH_SITE": "TYURATAM MISSILE AND SPACE COMPLEX",
  "OWNER": "GLOBALSTAR",
  "ORBIT_TYPE": "Low Earth Orbit",
  "OPERATIONAL_STATUS": "Nonoperational"
}, {
  "OBJECT_ID": "1999-062D",
  "OBJECT_NAME": "GLOBALSTAR M061",
  "NORAD_CAT_ID": "25964",
  "OBJECT_TYPE": "PAYLOAD",
  "PERIOD": "122.373",
  "INCLINATION": "51.9766",
  "APOGEE": "1791.622",
  "PERIGEE": "1781.945",
  "ECCENTRICITY": "0.0005926",
  "MEAN_MOTION": "11.76724873",
  "TLE_LINE1": "1 25964U 99062D   16239.44174957 -.00000038  00000-0  69697-3 0  9996",
  "TLE_LINE2": "2 25964  51.9766 233.8742 0005926  37.8390 131.8450 11.76724873742778",
  "LAUNCH_DATE": "1999-11-22",
  "LAUNCH_SITE": "TYURATAM MISSILE AND SPACE COMPLEX",
  "OWNER": "GLOBALSTAR",
  "ORBIT_TYPE": "Low Earth Orbit",
  "OPERATIONAL_STATUS": "Nonoperational"
}, {
  "OBJECT_ID": "1999-064A",
  "OBJECT_NAME": "HELIOS 1B",
  "NORAD_CAT_ID": "25977",
  "OBJECT_TYPE": "PAYLOAD",
  "PERIOD": "97.159",
  "INCLINATION": "98.1382",
  "APOGEE": "624.259",
  "PERIGEE": "621.132",
  "ECCENTRICITY": "0.0002233",
  "MEAN_MOTION": "14.82103031",
  "TLE_LINE1": "1 25977U 99064A   16239.35255722  .00000202  00000-0  32374-4 0  9997",
  "TLE_LINE2": "2 25977  98.1382 339.7700 0002233 124.7837 235.3585 14.82103031900333",
  "LAUNCH_DATE": "1999-12-03",
  "LAUNCH_SITE": "FRENCH GUIANA",
  "OWNER": "FRANCE",
  "ORBIT_TYPE": "Low Earth Orbit",
  "OPERATIONAL_STATUS": "Nonoperational"
}, {
  "OBJECT_ID": "1999-064B",
  "OBJECT_NAME": "CLEMENTINE",
  "NORAD_CAT_ID": "25978",
  "OBJECT_TYPE": "PAYLOAD",
  "PERIOD": "96.284",
  "INCLINATION": "98.2604",
  "APOGEE": "586.527",
  "PERIGEE": "574.694",
  "ECCENTRICITY": "0.0008502",
  "MEAN_MOTION": "14.95568389",
  "TLE_LINE1": "1 25978U 99064B   16239.15373921  .00000924  00000-0  89087-4 0  9992",
  "TLE_LINE2": "2 25978  98.2604  73.3578 0008502 169.2891 190.8511 14.95568389906925",
  "LAUNCH_DATE": "1999-12-03",
  "LAUNCH_SITE": "FRENCH GUIANA",
  "OWNER": "FRANCE",
  "ORBIT_TYPE": "Low Earth Orbit",
  "OPERATIONAL_STATUS": "Nonoperational"
}]